CCSDS_OEM_VERS = 1.0
CREATION_DATE  = 2017-05-11T10:55:32
ORIGINATOR     = GMAT USER

META_START
OBJECT_NAME          = MOPSSat_alt_35785_km_RAAN_0_006
OBJECT_ID            = SatId
CENTER_NAME          = Earth
REF_FRAME            = EME2000
TIME_SYSTEM          = UTC
START_TIME           = 2017-01-01T00:00:00.000
USEABLE_START_TIME   = 2017-01-01T00:00:00.000
USEABLE_STOP_TIME    = 2017-01-02T00:00:00.000
STOP_TIME            = 2017-01-02T00:00:00.000
INTERPOLATION        = Lagrange
INTERPOLATION_DEGREE = 7 
META_STOP


                                                                                   

2017-01-01T21:50:50.000   3.599694559306385e+04  -2.195443648764872e+04  -1.519520162556191e+00   1.600989780197357e+00   2.625051417557876e+00  -8.996129679323187e-05
2017-01-01T21:51:00.000   3.601294591851022e+04  -2.192818013833801e+04  -1.520419579813008e+00   1.599075136584143e+00   2.626218161790336e+00  -8.992214285138565e-05
2017-01-01T21:51:10.000   3.602892709296224e+04  -2.190191212906909e+04  -1.521318605213264e+00   1.597159642581631e+00   2.627383509414542e+00  -8.988292891489695e-05
2017-01-01T21:51:20.000   3.604488910808304e+04  -2.187563247354477e+04  -1.522217238166095e+00   1.595243299189121e+00   2.628547459822534e+00  -8.984365497748475e-05
2017-01-01T21:51:30.000   3.606083195550919e+04  -2.184934118553410e+04  -1.523115478078518e+00   1.593326107410746e+00   2.629710012404424e+00  -8.980432103299946e-05
2017-01-01T21:51:40.000   3.607675562693280e+04  -2.182303827873863e+04  -1.524013324360028e+00   1.591408068245713e+00   2.630871166554365e+00  -8.976492707522228e-05
2017-01-01T21:51:50.000   3.609266011389245e+04  -2.179672376713145e+04  -1.524910776410914e+00   1.589489182713034e+00   2.632030921655323e+00  -8.972547309837149e-05
2017-01-01T21:52:00.000   3.610854540792922e+04  -2.177039766470588e+04  -1.525807833630948e+00   1.587569451833193e+00   2.633189277090438e+00  -8.968595909672834e-05
2017-01-01T21:52:10.000   3.612441150058548e+04  -2.174405998547489e+04  -1.526704495419367e+00   1.585648876628110e+00   2.634346232242954e+00  -8.964638506463445e-05
2017-01-01T21:52:20.000   3.614025838325499e+04  -2.171771074372582e+04  -1.527600761166297e+00   1.583727458139712e+00   2.635501786485270e+00  -8.960675099688039e-05
2017-01-01T21:52:30.000   3.615608604738587e+04  -2.169134995367782e+04  -1.528496630264326e+00   1.581805197404950e+00   2.636655939193757e+00  -8.956705688818494e-05
2017-01-01T21:52:40.000   3.617189448440041e+04  -2.166497762961662e+04  -1.529392102103935e+00   1.579882095465636e+00   2.637808689742896e+00  -8.952730273339956e-05
2017-01-01T21:52:50.000   3.618768368605183e+04  -2.163859378529943e+04  -1.530287176093712e+00   1.577958153325037e+00   2.638960037531306e+00  -8.948748852660723e-05
2017-01-01T21:53:00.000   3.620345364406732e+04  -2.161219843454989e+04  -1.531181851640138e+00   1.576033371991268e+00   2.640109981955700e+00  -8.944761426202375e-05
2017-01-01T21:53:10.000   3.621920435022901e+04  -2.158579159112378e+04  -1.532076128152164e+00   1.574107752467493e+00   2.641258522416807e+00  -8.940767993379409e-05
2017-01-01T21:53:20.000   3.623493579616741e+04  -2.155937326904944e+04  -1.532970005029575e+00   1.572181295776752e+00   2.642405658304297e+00  -8.936768553650931e-05
2017-01-01T21:53:30.000   3.625064797351563e+04  -2.153294348237540e+04  -1.533863481671646e+00   1.570254002943559e+00   2.643551389008024e+00  -8.932763106482296e-05
2017-01-01T21:53:40.000   3.626634087390820e+04  -2.150650224516982e+04  -1.534756557477119e+00   1.568325874993859e+00   2.644695713917954e+00  -8.928751651345093e-05
2017-01-01T21:53:50.000   3.628201448883281e+04  -2.148004957177624e+04  -1.535649231835671e+00   1.566396912973675e+00   2.645838632413341e+00  -8.924734187755617e-05
2017-01-01T21:54:00.000   3.629766880983111e+04  -2.145358547646962e+04  -1.536541504139429e+00   1.564467117924034e+00   2.646980143877378e+00  -8.920710715223052e-05
2017-01-01T21:54:10.000   3.631330382841787e+04  -2.142710997359424e+04  -1.537433373778343e+00   1.562536490891017e+00   2.648120247691294e+00  -8.916681233270230e-05
2017-01-01T21:54:20.000   3.632891953643959e+04  -2.140062307695626e+04  -1.538324840160650e+00   1.560605032881462e+00   2.649258943260509e+00  -8.912645741342044e-05
2017-01-01T21:54:30.000   3.634451592571478e+04  -2.137412480043254e+04  -1.539215902692349e+00   1.558672744907365e+00   2.650396229988407e+00  -8.908604238897213e-05
2017-01-01T21:54:40.000   3.636009298812701e+04  -2.134761515781362e+04  -1.540106560782513e+00   1.556739627974427e+00   2.651532107283112e+00  -8.904556725384744e-05
2017-01-01T21:54:50.000   3.637565071537402e+04  -2.132109416322568e+04  -1.540996813829014e+00   1.554805683112826e+00   2.652666574539194e+00  -8.900503200307041e-05
2017-01-01T21:55:00.000   3.639118909917508e+04  -2.129456183078253e+04  -1.541886661230308e+00   1.552870911351834e+00   2.653799631152803e+00  -8.896443663168088e-05
2017-01-01T21:55:10.000   3.640670813122467e+04  -2.126801817466319e+04  -1.542776102382801e+00   1.550935313725482e+00   2.654931276518274e+00  -8.892378113484866e-05
2017-01-01T21:55:20.000   3.642220780320629e+04  -2.124146320909156e+04  -1.543665136681596e+00   1.548998891271074e+00   2.656061510029143e+00  -8.888306550785425e-05
2017-01-01T21:55:30.000   3.643768810680680e+04  -2.121489694830926e+04  -1.544553763521347e+00   1.547061645027202e+00   2.657190331079197e+00  -8.884228974603587e-05
2017-01-01T21:55:40.000   3.645314903372215e+04  -2.118831940656615e+04  -1.545441982296592e+00   1.545123576033065e+00   2.658317739062879e+00  -8.880145384477881e-05
2017-01-01T21:55:50.000   3.646859057571328e+04  -2.116173059802564e+04  -1.546329792404935e+00   1.543184685321554e+00   2.659443733379373e+00  -8.876055779936274e-05
2017-01-01T21:56:00.000   3.648401272456846e+04  -2.113513053682759e+04  -1.547217193244918e+00   1.541244973923842e+00   2.660568313429860e+00  -8.871960160506514e-05
2017-01-01T21:56:10.000   3.649941547210354e+04  -2.110851923708835e+04  -1.548104184216023e+00   1.539304442869394e+00   2.661691478617529e+00  -8.867858525715869e-05
2017-01-01T21:56:20.000   3.651479881019789e+04  -2.108189671283698e+04  -1.548990764720769e+00   1.537363093181303e+00   2.662813228350199e+00  -8.863750875081978e-05
2017-01-01T21:56:30.000   3.653016273073978e+04  -2.105526297811066e+04  -1.549876934161556e+00   1.535420925883256e+00   2.663933562036348e+00  -8.859637208126856e-05
2017-01-01T21:56:40.000   3.654550722562117e+04  -2.102861804696435e+04  -1.550762691940348e+00   1.533477942000239e+00   2.665052479084713e+00  -8.855517524378716e-05
2017-01-01T21:56:50.000   3.656083228672112e+04  -2.100196193349668e+04  -1.551648037457763e+00   1.531534142560422e+00   2.666169978903094e+00  -8.851391823374875e-05
2017-01-01T21:57:00.000   3.657613790589498e+04  -2.097529465187206e+04  -1.552532970112400e+00   1.529589528596769e+00   2.667286060897565e+00  -8.847260104666322e-05
2017-01-01T21:57:10.000   3.659142407501886e+04  -2.094861621624194e+04  -1.553417489303426e+00   1.527644101141300e+00   2.668400724475712e+00  -8.843122367805125e-05
2017-01-01T21:57:20.000   3.660669078579019e+04  -2.092192664109732e+04  -1.554301594418966e+00   1.525697861250801e+00   2.669513969032089e+00  -8.838978612400305e-05
2017-01-01T21:57:30.000   3.662193802996971e+04  -2.089522594084183e+04  -1.555185284850187e+00   1.523750809975679e+00   2.670625793965875e+00  -8.834828838050420e-05
2017-01-01T21:57:40.000   3.663716579929148e+04  -2.086851412995029e+04  -1.556068559986048e+00   1.521802948371538e+00   2.671736198674297e+00  -8.830673044368539e-05
2017-01-01T21:57:50.000   3.665237408581311e+04  -2.084179122235446e+04  -1.556951419233636e+00   1.519854277454377e+00   2.672845182578176e+00  -8.826511230886057e-05
2017-01-01T21:58:00.000   3.666756288156614e+04  -2.081505723205563e+04  -1.557833861997880e+00   1.517904798245270e+00   2.673952745096438e+00  -8.822343397148566e-05
2017-01-01T21:58:10.000   3.668273217863565e+04  -2.078831217298608e+04  -1.558715887686161e+00   1.515954511760256e+00   2.675058885651906e+00  -8.818169542694222e-05
2017-01-01T21:58:20.000   3.669788196896105e+04  -2.076155605935382e+04  -1.559597495696829e+00   1.514003419035481e+00   2.676163603656786e+00  -8.813989667107369e-05
2017-01-01T21:58:30.000   3.671301224448474e+04  -2.073478890538709e+04  -1.560478685427740e+00   1.512051521108568e+00   2.677266898523500e+00  -8.809803769978932e-05
2017-01-01T21:58:40.000   3.672812299715102e+04  -2.070801072533368e+04  -1.561359456276239e+00   1.510098819018563e+00   2.678368769664612e+00  -8.805611850906104e-05
2017-01-01T21:58:50.000   3.674321421876341e+04  -2.068122153371987e+04  -1.562239807630745e+00   1.508145313824822e+00   2.679469216482417e+00  -8.801413909533506e-05
2017-01-01T21:59:00.000   3.675828590117789e+04  -2.065442134500225e+04  -1.563119738882103e+00   1.506191006581620e+00   2.680568238383038e+00  -8.797209945498037e-05
2017-01-01T21:59:10.000   3.677333803622645e+04  -2.062761017370469e+04  -1.563999249419107e+00   1.504235898348135e+00   2.681665834770846e+00  -8.792999958450563e-05
2017-01-01T21:59:20.000   3.678837061605686e+04  -2.060078803381334e+04  -1.564878338648352e+00   1.502279990144336e+00   2.682762005073246e+00  -8.788783947960475e-05
2017-01-01T21:59:30.000   3.680338363279276e+04  -2.057395493938149e+04  -1.565757005974377e+00   1.500323282995088e+00   2.683856748715874e+00  -8.784561913611126e-05
2017-01-01T21:59:40.000   3.681837707861079e+04  -2.054711090439306e+04  -1.566635250804163e+00   1.498365777920198e+00   2.684950065128240e+00  -8.780333854978273e-05
2017-01-01T21:59:50.000   3.683335094554382e+04  -2.052025594310868e+04  -1.567513072535703e+00   1.496407475959651e+00   2.686041953729364e+00  -8.776099771684753e-05
